[
  {
    "state": "Alabama",
    "capital": "Montgomery",
    "zip": "35004 to 36925"
  },
  {
    "state": "Alaska",
    "capital": "Juneau",
    "zip": "99501 to 99950"
  },
  {
    "state": "Arizona",
    "capital": "Phoenix",
    "zip": "85001 to 86556"
  },
  {
    "state": "Arkansas",
    "capital": "Little Rock",
    "zip": "71601 to 72959"
  },
  {
    "state": "California",
    "capital": "Sacramento",
    "zip": "90001 to 96162"
  },
  {
    "state": "Colorado",
    "capital": "Denver",
    "zip": "80001 to 81658"
  },
  {
    "state": "Connecticut",
    "capital": "Hartford",
    "zip": "06001 to 06928"
  },
  {
    "state": "Delaware",
    "capital": "Dover",
    "zip": "19701 to 19980"
  },
  {
    "state": "Florida",
    "capital": "Tallahassee",
    "zip": "32003 to 34997"
  },
  {
    "state": "Georgia",
    "capital": "Atlanta",
    "zip": "30002 to 39901"
  },
  {
    "state": "Hawaii",
    "capital": "Honolulu",
    "zip": "96701 to 96898"
  },
  {
    "state": "Idaho",
    "capital": "Boise",
    "zip": "83201 to 83888"
  },
  {
    "state": "Illinois",
    "capital": "Springfield",
    "zip": "60001 to 62999"
  },
  {
    "state": "Indiana",
    "capital": "Indianapolis",
    "zip": "46001 to 47997"
  },
  {
    "state": "Iowa",
    "capital": "Des Moines",
    "zip": "50001 to 52809"
  },
  {
    "state": "Kansas",
    "capital": "Topeka",
    "zip": "66002 to 67954"
  },
  {
    "state": "Kentucky",
    "capital": "Frankfort",
    "zip": "40003 to 42788"
  },
  {
    "state": "Louisiana",
    "capital": "Baton Rouge",
    "zip": "70001 to 71497"
  },
  {
    "state": "Maine",
    "capital": "Augusta",
    "zip": "03901 to 04992"
  },
  {
    "state": "Maryland",
    "capital": "Annapolis",
    "zip": "20601 to 21930"
  },
  {
    "state": "Massachusetts",
    "capital": "Boston",
    "zip": "01001 to 05544"
  },
  {
    "state": "Michigan",
    "capital": "Lansing",
    "zip": "48001 to 49971"
  },
  {
    "state": "Minnesota",
    "capital": "Saint Paul",
    "zip": "55001 to 56763"
  },
  {
    "state": "Mississippi",
    "capital": "Jackson",
    "zip": "38601 to 39776"
  },
  {
    "state": "Missouri",
    "capital": "Jefferson City",
    "zip": "63001 to 65899"
  },
  {
    "state": "Montana",
    "capital": "Helena",
    "zip": "59001 to 59937"
  },
  {
    "state": "Nebraska",
    "capital": "Lincoln",
    "zip": "68001 to 69367"
  },
  {
    "state": "Nevada",
    "capital": "Carson City",
    "zip": "88901 to 89883"
  },
  {
    "state": "New Hampshire",
    "capital": "Concord",
    "zip": "03031 to 03897"
  },
  {
    "state": "New Jersey",
    "capital": "Trenton",
    "zip": "07001 to 08989"
  },
  {
    "state": "New Mexico",
    "capital": "Santa Fe",
    "zip": "87001 to 88441"
  },
  {
    "state": "New York",
    "capital": "Albany",
    "zip": "00501 to 14925"
  },
  {
    "state": "North Carolina",
    "capital": "Raleigh",
    "zip": "27006 to 28909"
  },
  {
    "state": "North Dakota",
    "capital": "Bismarck",
    "zip": "58001 to 58856"
  },
  {
    "state": "Ohio",
    "capital": "Columbus",
    "zip": "43001 to 45999"
  },
  {
    "state": "Oklahoma",
    "capital": "Oklahoma City",
    "zip": "73001 to 74966"
  },
  {
    "state": "Oregon",
    "capital": "Salem",
    "zip": "97001 to 97920"
  },
  {
    "state": "Pennsylvania",
    "capital": "Harrisburg",
    "zip": "15001 to 19640"
  },
  {
    "state": "Rhode Island",
    "capital": "Providence",
    "zip": "02801 to 02940"
  },
  {
    "state": "South Carolina",
    "capital": "Columbia",
    "zip": "29001 to 29945"
  },
  {
    "state": "South Dakota",
    "capital": "Pierre",
    "zip": "57001 to 57799"
  },
  {
    "state": "Tennessee",
    "capital": "Nashville",
    "zip": "37010 to 38589"
  },
  {
    "state": "Texas",
    "capital": "Austin",
    "zip": "73301 to 88595"
  },
  {
    "state": "Utah",
    "capital": "Salt Lake City",
    "zip": "84001 to 84791"
  },
  {
    "state": "Vermont",
    "capital": "Montpelier",
    "zip": "05001 to 05907"
  },
  {
    "state": "Virginia",
    "capital": "Richmond",
    "zip": "20101 to 24658"
  },
  {
    "state": "Washington",
    "capital": "Olympia",
    "zip": "98001 to 99403"
  },
  {
    "state": "West Virginia",
    "capital": "Charleston",
    "zip": "24701 to 26886"
  },
  {
    "state": "Wisconsin",
    "capital": "Madison",
    "zip": "53001 to 54990"
  },
  {
    "state": "Wyoming",
    "capital": "Cheyenne",
    "zip": "82001 to 83128"
  }
]
